[{"OBJECT_NAME":"PREFIRE-1","OBJECT_ID":"2024-108A","EPOCH":"2026-03-09T22:24:03.177504","MEAN_MOTION":15.22571626,"ECCENTRICITY":0.00108716,"INCLINATION":97.5188,"RA_OF_ASC_NODE":223.5154,"ARG_OF_PERICENTER":223.1698,"MEAN_ANOMALY":136.8686,"EPHEMERIS_TYPE":0,"CLASSIFICATION_TYPE":"U","NORAD_CAT_ID":59965,"ELEMENT_SET_NO":999,"REV_AT_EPOCH":9748,"BSTAR":0.00029745769,"MEAN_MOTION_DOT":6.846e-5,"MEAN_MOTION_DDOT":0},{"OBJECT_NAME":"SITRO-AIS-62","OBJECT_ID":"2025-313BA","EPOCH":"2026-03-09T22:28:04.503072","MEAN_MOTION":15.2313984,"ECCENTRICITY":0.00083903,"INCLINATION":97.4013,"RA_OF_ASC_NODE":145.3565,"ARG_OF_PERICENTER":355.0929,"MEAN_ANOMALY":5.0224,"EPHEMERIS_TYPE":0,"CLASSIFICATION_TYPE":"U","NORAD_CAT_ID":67296,"ELEMENT_SET_NO":999,"REV_AT_EPOCH":1086,"BSTAR":0.00055522855,"MEAN_MOTION_DOT":0.00013063,"MEAN_MOTION_DDOT":0}]
